NORAD_CAT_ID,OBJECT_NAME,OBJECT_TYPE,EPOCH,MEAN_MOTION,ECCENTRICITY,INCLINATION,RA_OF_ASC_NODE,ARG_OF_PERICENTER,MEAN_ANOMALY,BSTAR,MEAN_MOTION_DOT,MEAN_MOTION_DDOT,TLE_LINE0,TLE_LINE1,TLE_LINE2,SEMIMAJOR_AXIS,PERIOD,APOGEE,PERIGEE,DECAYED
56816.0,STARLINK-6067,PAYLOAD,2024-06-11 04:02:30,14.98325502,0.0002844,69.999,129.1566,268.79,91.2934,0.00010379,1.145e-05,0.0,0 STARLINK-6067,1 56816U 23078BB  24163.16841176  .00001145  00000-0  10379-3 0  9990,2 56816  69.9990 129.1566 0002844 268.7900  91.2934 14.98325502 58099,6950.207,96.107,574.048,570.095,0.0
56816.0,STARLINK-6067,PAYLOAD,2024-06-11 07:14:46,14.98330619,0.0002805,69.999,128.82,269.9967,90.087,7.8355e-05,8.42e-06,0.0,0 STARLINK-6067,1 56816U 23078BB  24163.30192934  .00000842  00000-0  78355-4 0  9999,2 56816  69.9990 128.8200 0002805 269.9967  90.0870 14.98330619 57857,6950.191,96.107,574.006,570.106,0.0
56816.0,STARLINK-6067,PAYLOAD,2024-06-12 04:04:31,14.98327198,0.0002819,69.9991,126.6318,270.1515,89.9321,-1.9442e-05,-3.25e-06,0.0,0 STARLINK-6067,1 56816U 23078BB  24164.16981472 -.00000325  00000-0 -19442-4 0  9997,2 56816  69.9991 126.6318 0002819 270.1515  89.9321 14.98327198 58242,6950.202,96.107,574.026,570.107,0.0
56816.0,STARLINK-6067,PAYLOAD,2024-06-12 05:40:39,14.98328035,0.0002811,69.9991,126.4635,270.1668,89.9169,-9.8198e-06,-2.1e-06,0.0,0 STARLINK-6067,1 56816U 23078BB  24164.23657400 -.00000210  00000-0 -98198-5 0  9995,2 56816  69.9991 126.4635 0002811 270.1668  89.9169 14.98328035 57995,6950.199,96.107,574.018,570.11,0.0
56816.0,STARLINK-6067,PAYLOAD,2024-06-12 21:42:00,14.98330972,0.0002871,69.999,124.7794,270.8355,89.2475,6.0148e-05,6.25e-06,0.0,0 STARLINK-6067,1 56816U 23078BB  24164.90417005  .00000625  00000-0  60148-4 0  9995,2 56816  69.9990 124.7794 0002871 270.8355  89.2475 14.98330972 58095,6950.19,96.107,574.05,570.059,0.0
56816.0,STARLINK-6067,PAYLOAD,2024-06-13 04:06:32,14.98333322,0.0002901,69.999,124.1063,271.1181,88.9646,4.2951e-05,4.2e-06,0.0,0 STARLINK-6067,1 56816U 23078BB  24165.17120889  .00000420  00000-0  42951-4 0  9991,2 56816  69.9990 124.1063 0002901 271.1181  88.9646 14.98333322 58394,6950.183,96.107,574.064,570.031,0.0
56816.0,STARLINK-6067,PAYLOAD,2024-06-13 07:18:48,14.98333335,0.0002919,69.9991,123.7697,271.4127,88.6698,4.1176e-05,3.98e-06,0.0,0 STARLINK-6067,1 56816U 23078BB  24165.30472880  .00000398  00000-0  41176-4 0  9999,2 56816  69.9991 123.7697 0002919 271.4127  88.6698 14.98333335 58157,6950.183,96.107,574.076,570.019,0.0
56816.0,STARLINK-6067,PAYLOAD,2024-06-13 21:44:01,14.98330737,0.0002975,69.9991,122.2549,271.2241,88.8577,4.7382e-05,4.72e-06,0.0,0 STARLINK-6067,1 56816U 23078BB  24165.90556952  .00000472  00000-0  47382-4 0  9996,2 56816  69.9991 122.2549 0002975 271.2241  88.8577 14.98330737 58245,6950.191,96.107,574.123,569.988,0.0
56816.0,STARLINK-6067,PAYLOAD,2024-06-14 13:45:23,14.98319354,0.0003222,69.9984,120.571,269.3526,90.7264,-0.00011601,-1.477e-05,0.0,0 STARLINK-6067,1 56816U 23078BB  24166.57318409 -.00001477  00000-0 -11601-3 0  9995,2 56816  69.9984 120.5710 0003222 269.3526  90.7264 14.98319354 58346,6950.226,96.108,574.33,569.851,0.0
56816.0,STARLINK-6067,PAYLOAD,2024-06-14 21:46:03,14.9831865,0.0003126,69.9983,119.7298,270.5809,89.4992,-7.6738e-05,-1.008e-05,0.0,0 STARLINK-6067,1 56816U 23078BB  24166.90698603 -.00001008  00000-0 -76738-4 0  9992,2 56816  69.9983 119.7298 0003126 270.5809  89.4992 14.98318650 58393,6950.228,96.108,574.266,569.92,0.0
56816.0,STARLINK-6067,PAYLOAD,2024-06-15 07:22:51,14.98326976,0.0002936,69.999,118.7203,270.6426,89.4396,-1.0918e-05,-2.23e-06,0.0,0 STARLINK-6067,1 56816U 23078BB  24167.30754171 -.00000223  00000-0 -10918-4 0  9996,2 56816  69.9990 118.7203 0002936 270.6426  89.4396 14.98326976 58455,6950.202,96.107,574.108,570.027,0.0
56816.0,STARLINK-6067,PAYLOAD,2024-06-16 13:49:23,14.98331721,0.0002916,69.9987,115.5222,271.2954,88.7871,0.00025115,2.905e-05,0.0,0 STARLINK-6067,1 56816U 23078BB  24168.57597106  .00002905  00000-0  25115-3 0  9990,2 56816  69.9987 115.5222 0002916 271.2954  88.7871 14.98331721 58643,6950.188,96.107,574.079,570.026,0.0
56816.0,STARLINK-6067,PAYLOAD,2024-06-16 21:50:04,14.98331818,0.0002631,69.9997,114.682,269.32,90.7658,0.00012591,1.41e-05,0.0,0 STARLINK-6067,1 56816U 23078BB  24168.90977515  .00001410  00000-0  12591-3 0  9997,2 56816  69.9997 114.6820 0002631 269.3200  90.7658 14.98331818 58692,6950.187,96.107,573.881,570.224,0.0
56816.0,STARLINK-6067,PAYLOAD,2024-06-17 13:51:25,14.98327049,0.0002647,69.9994,112.9982,270.8105,89.2751,0.00011175,1.241e-05,0.0,0 STARLINK-6067,1 56816U 23078BB  24169.57737687  .00001241  00000-0  11175-3 0  9994,2 56816  69.9994 112.9982 0002647 270.8105  89.2751 14.98327049 59056,6950.202,96.107,573.907,570.227,0.0
56816.0,STARLINK-6067,PAYLOAD,2024-06-17 21:52:05,14.98339032,0.0002751,69.9992,112.1557,269.8408,90.2436,-8.2543e-05,-1.078e-05,0.0,0 STARLINK-6067,1 56816U 23078BB  24169.91117187 -.00001078  00000-0 -82543-4 0  9997,2 56816  69.9992 112.1557 0002751 269.8408  90.2436 14.98339032 58847,6950.165,96.106,573.942,570.118,0.0
56816.0,STARLINK-6067,PAYLOAD,2024-06-18 02:40:29,14.9833625,0.0002797,69.9995,111.6514,272.3391,87.7448,-3.3556e-05,-4.93e-06,0.0,0 STARLINK-6067,1 56816U 23078BB  24170.11145130 -.00000493  00000-0 -33556-4 0  9990,2 56816  69.9995 111.6514 0002797 272.3391  87.7448 14.98336250 59133,6950.174,96.107,573.983,570.095,0.0
56816.0,STARLINK-6067,PAYLOAD,2024-06-18 13:53:25,14.98337836,0.0002735,69.9994,110.4721,270.0931,89.9914,-0.00010125,-1.301e-05,0.0,0 STARLINK-6067,1 56816U 23078BB  24170.57876906 -.00001301  00000-0 -10125-3 0  9997,2 56816  69.9994 110.4721 0002735 270.0931  89.9914 14.98337836 58947,6950.169,96.106,573.935,570.133,0.0
56816.0,STARLINK-6067,PAYLOAD,2024-06-19 04:18:38,14.98332484,0.0002795,69.9994,108.9575,272.0736,88.0103,-8.9485e-06,-2e-06,0.0,0 STARLINK-6067,1 56816U 23078BB  24171.17960898 -.00000200  00000-0 -89485-5 0  9992,2 56816  69.9994 108.9575 0002795 272.0736  88.0103 14.98332484 59290,6950.185,96.107,573.993,570.108,0.0
56816.0,STARLINK-6067,PAYLOAD,2024-06-19 05:54:46,14.98333288,0.000279,69.9995,108.7892,272.0824,88.0015,-5.6883e-08,-9.4e-07,0.0,0 STARLINK-6067,1 56816U 23078BB  24171.24636812 -.00000094  00000-0 -56883-7 0  9995,2 56816  69.9995 108.7892 0002790 272.0824  88.0015 14.98333288 59042,6950.183,96.107,573.987,570.109,0.0
56816.0,STARLINK-6067,PAYLOAD,2024-06-19 21:56:06,14.98331589,0.0002777,69.9997,107.106,272.3294,87.7547,1.5178e-05,8.8e-07,0.0,0 STARLINK-6067,1 56816U 23078BB  24171.91396777  .00000088  00000-0  15178-4 0  9992,2 56816  69.9997 107.1060 0002777 272.3294  87.7547 14.98331589 59142,6950.188,96.107,573.983,570.123,0.0
56816.0,STARLINK-6067,PAYLOAD,2024-06-20 04:20:38,14.98334696,0.0002775,69.9997,106.4326,272.6016,87.4825,4.346e-05,4.26e-06,0.0,0 STARLINK-6067,1 56816U 23078BB  24172.18100462  .00000426  00000-0  43460-4 0  9997,2 56816  69.9997 106.4326 0002775 272.6016  87.4825 14.98334696 59443,6950.178,96.107,573.972,570.115,0.0
56816.0,STARLINK-6067,PAYLOAD,2024-06-20 05:56:46,14.98335684,0.0002767,69.9997,106.2643,272.6434,87.4408,5.4252e-05,5.54e-06,0.0,0 STARLINK-6067,1 56816U 23078BB  24172.24776353  .00000554  00000-0  54252-4 0  9995,2 56816  69.9997 106.2643 0002767 272.6434  87.4408 14.98335684 59195,6950.175,96.107,573.963,570.117,0.0
56816.0,STARLINK-6067,PAYLOAD,2024-06-20 21:58:07,14.98327243,0.0002711,69.9999,104.5811,273.0642,87.0207,-1.5231e-05,-2.75e-06,0.0,0 STARLINK-6067,1 56816U 23078BB  24172.91537030 -.00000275  00000-0 -15231-4 0  9992,2 56816  69.9999 104.5811 0002711 273.0642  87.0207 14.98327243 59296,6950.201,96.107,573.951,570.182,0.0
56816.0,STARLINK-6067,PAYLOAD,2024-06-20 23:34:16,14.98326624,0.000272,69.9999,104.4128,273.0066,87.0781,-2.0988e-05,-3.43e-06,0.0,0 STARLINK-6067,1 56816U 23078BB  24172.98213091 -.00000343  00000-0 -20988-4 0  9998,2 56816  69.9999 104.4128 0002720 273.0066  87.0781 14.98326624 59565,6950.203,96.107,573.959,570.178,0.0
56816.0,STARLINK-6067,PAYLOAD,2024-06-21 05:58:48,14.98326734,0.0002694,70.0,103.74,271.7133,88.3717,-2.3249e-05,-3.7e-06,0.0,0 STARLINK-6067,1 56816U 23078BB  24173.24917145 -.00000370  00000-0 -23249-4 0  9992,2 56816  70.0000 103.7400 0002694 271.7133  88.3717 14.98326734 59347,6950.203,96.107,573.94,570.196,0.0
56816.0,STARLINK-6067,PAYLOAD,2024-06-21 20:24:00,14.98333309,0.0002734,69.9998,102.2254,264.6732,95.4115,-1.6997e-06,-1.13e-06,0.0,0 STARLINK-6067,1 56816U 23078BB  24173.85000646 -.00000113  00000-0 -16997-5 0  9996,2 56816  69.9998 102.2254 0002734 264.6732  95.4115 14.98333309 59697,6950.183,96.107,573.948,570.147,0.0
56816.0,STARLINK-6067,PAYLOAD,2024-06-21 22:00:08,14.98333015,0.0002744,69.9998,102.0571,264.2836,95.801,-5.2887e-06,-1.56e-06,0.0,0 STARLINK-6067,1 56816U 23078BB  24173.91676657 -.00000156  00000-0 -52887-5 0  9999,2 56816  69.9998 102.0571 0002744 264.2836  95.8010 14.98333015 59444,6950.184,96.107,573.956,570.141,0.0
56816.0,STARLINK-6067,PAYLOAD,2024-06-22 04:24:40,14.98333134,0.0002749,69.9999,101.3839,263.948,96.1365,-2.1964e-06,-1.19e-06,0.0,0 STARLINK-6067,1 56816U 23078BB  24174.18380600 -.00000119  00000-0 -21964-5 0  9990,2 56816  69.9999 101.3839 0002749 263.9480  96.1365 14.98333134 59483,6950.183,96.107,573.959,570.138,0.0
56816.0,STARLINK-6067,PAYLOAD,2024-06-22 20:26:01,14.98329372,0.0002842,69.9997,99.7,264.3994,95.6841,7.0477e-05,7.48e-06,0.0,0 STARLINK-6067,1 56816U 23078BB  24174.85140560  .00000748  00000-0  70477-4 0  9991,2 56816  69.9997  99.7000 0002842 264.3994  95.6841 14.98329372 59842,6950.195,96.107,574.035,570.085,0.0
56816.0,STARLINK-6067,PAYLOAD,2024-06-22 22:02:09,14.98329391,0.0002846,69.9997,99.5317,264.4838,95.5996,6.9003e-05,7.3e-06,0.0,0 STARLINK-6067,1 56816U 23078BB  24174.91816565  .00000730  00000-0  69003-4 0  9997,2 56816  69.9997  99.5317 0002846 264.4838  95.5996 14.98329391 59596,6950.195,96.107,574.038,570.082,0.0
